SL-3 R/B                
1 19046U 88032B   18254.90356777  .00000067  00000-0  94650-5 0  9997
2 19046  97.4749 292.1443 0035757 235.0125 124.7742 15.02482912640171
SL-16 R/B               
1 19120U 88039B   18255.53120778 -.00000143  00000-0 -45016-4 0  9995
2 19120  71.0122  89.1335 0023369 219.1148 140.8289 14.19190234570565
COSMOS 1953             
1 19210U 88050A   18254.73360995  .00000126  00000-0  66513-5 0  9991
2 19210  82.5183 315.4594 0014118 155.1853 205.0057 15.05622897624642
SL-8 R/B                
1 19257U 88053B   18255.13327948  .00000074  00000-0  33572-4 0  9991
2 19257  74.0477 105.6520 0021348 245.4930 253.6884 14.37408183583707
COSMOS 1975             
1 19573U 88093A   18255.17263689  .00000505  00000-0  33930-4 0  9998
2 19573  82.5170 268.0487 0013740 192.3457 167.7435 15.04525112627768
SL-14 R/B               
1 19574U 88093B   18254.93414493  .00000069  00000-0  54758-5 0  9990
2 19574  82.5294  82.7010 0023083  68.7517  43.8578 14.83274436595327
SL-16 R/B               
1 19650U 88102B   18254.91336593 -.00000262  00000-0 -10892-3 0  9994
2 19650  70.9999 145.2330 0015793 222.5697 137.4203 14.15774197539656
INTERCOSMOS 24          
1 20261U 89080A   18255.02108136  .00000131  00000-0  30044-4 0  9998
2 20261  82.5965  77.3138 1204001 134.6671 235.9177 12.56010737322680
SL-14 R/B               
1 20262U 89080C   18255.09291704  .00000036  00000-0  99620-5 0  9990
2 20262  82.5930 126.6747 1236326 306.3385  42.9623 12.48901986318124
DELTA 1 R/B             
1 20323U 89089B   18255.52959982  .00000017  00000-0  13388-4 0  9999
2 20323  97.1003 135.3631 0073337  97.8697 263.0833 14.48269808520195
DELTA 2 R/B(1)          
1 20453U 90008B   18254.88990592  .00000475  00000-0  29844-4 0  9998
2 20453  35.6258  93.7282 0285668 328.8515  29.5542 14.84348276515334
COSMOS 2058             
1 20465U 90010A   18255.34161766  .00000206  00000-0  15259-4 0  9996
2 20465  82.4920 173.0333 0014564 206.6145 153.4332 14.97764235553011
SL-14 R/B               
1 20466U 90010B   18255.21205580  .00000083  00000-0  76034-5 0  9998
2 20466  82.5033 309.6506 0019103 295.6725  64.2515 14.81333168544419
SL-14 R/B               
1 20511U 90018B   18255.08582976  .00000055  00000-0  40993-5 0  9993
2 20511  82.5203 253.2621 0019086  72.9045 350.5061 14.79990238538900
HST                     
1 20580U 90037B   18255.39869378  .00000513  00000-0  20444-4 0  9995
2 20580  28.4700 258.5718 0002544   2.6326 357.4270 15.09091904358651
SL-16 R/B               
1 20625U 90046B   18255.47666788  .00000082  00000-0  67466-4 0  9990
2 20625  70.9969 279.8598 0013156 147.9293 212.2633 14.14629972461809
COSMOS 2084             
1 20663U 90055A   18254.89840181 -.00000017  00000-0  16780-4 0  9990
2 20663  62.7931 160.1543 0113885 135.2214 225.8142 14.91877481527188
SL-6 R/B(2)             
1 20666U 90055D   18254.86421916 -.00000014  00000-0  17055-4 0  9994
2 20666  62.7850  78.0479 0084463 157.2267 203.2609 14.92165143528575
SL-8 R/B                
1 20775U 90078B   18255.01938281  .00001063  00000-0  50110-4 0  9999
2 20775  82.9292  37.2525 0582091  28.4163 334.7494 14.32472368413415
SL-8 R/B                
1 21088U 91006B   18254.93444819  .00000101  00000-0  86226-4 0  9997
2 21088  82.9423  44.3980 0023566 133.5242 339.1444 13.77094525387503
OKEAN-3                 
1 21397U 91039A   18255.16510446  .00000167  00000-0  13648-4 0  9992
2 21397  82.5197  69.0054 0018372 160.9813 199.2097 14.92705743477208
COSMOS 2151             
1 21422U 91042A   18254.91449778  .00000129  00000-0  10208-4 0  9993
2 21422  82.5030 176.5284 0013000 221.6423 138.3808 14.91980879454772
SL-14 R/B               
1 21423U 91042B   18255.51964814  .00000050  00000-0  36458-5 0  9993
2 21423  82.4910 258.6990 0016932 204.1826 155.8594 14.79741614469472
ERS-1                   
1 21574U 91050A   18254.89383299 -.00000004  00000-0  13134-4 0  9996
2 21574  98.5104 201.2812 0033992  48.3258 312.0830 14.37663528422505
ARIANE 40 R/B           
1 21610U 91050F   18254.85693988  .00000008  00000-0  16556-4 0  9996
2 21610  98.5476 317.6217 0003897  48.8881  80.7070 14.40848264424870
INTERCOSMOS 25          
1 21819U 91086A   18255.46534163 -.00000219  00000-0 -47780-4 0  9992
2 21819  82.5956 151.8183 1516036 203.9565 148.3174 12.04928457166741
SL-14 R/B               
1 21820U 91086B   18255.48827667  .00000174  00000-0  28024-4 0  9998
2 21820  82.5613 211.6489 1577306  50.0584 322.8723 11.93399027160730
SL-8 R/B                
1 21876U 92008B   18254.80560300  .00000032  00000-0  17630-4 0  9991
2 21876  82.9277 141.5670 0033915 211.8816 215.3196 13.75630526333243
SL-8 R/B                
1 21938U 92020B   18254.87332150  .00000058  00000-0  44614-4 0  9991
2 21938  82.9324  25.1202 0029436  14.6725  95.2972 13.75267177325071
SL-16 R/B               
1 22220U 92076B   18255.23958437  .00000123  00000-0  85715-4 0  9990
2 22220  71.0001 187.6823 0014832 299.3168 164.0310 14.16433227334783
SL-16 R/B               
1 22285U 92093B   18254.67150309 -.00000212  00000-0 -85077-4 0  9991
2 22285  71.0236 345.1710 0004081 191.9822 168.1205 14.15022739326127
COSMOS 2228             
1 22286U 92094A   18255.52123717  .00000193  00000-0  18187-4 0  9995
2 22286  82.5201 307.4637 0022580  62.0599 298.2901 14.87967696389754
SL-16 R/B               
1 22566U 93016B   18247.24092664  .00000023  00000-0  36274-4 0  9996
2 22566  71.0067 214.8169 0010718 186.2424 173.8634 14.14949294314095
COSMOS 2242             
1 22626U 93024A   18255.16900029  .00000157  00000-0  14388-4 0  9995
2 22626  82.5242 335.6596 0020331  63.0305 297.2985 14.87831375373356
SL-16 R/B               
1 22803U 93059B   18255.51076414  .00000180  00000-0  11343-3 0  9994
2 22803  70.9927  16.2739 0015467  51.7798 308.4715 14.16799959292358
ARIANE 40 R/B           
1 22830U 93061H   18255.10864040 -.00000036  00000-0  36607-5 0  9995
2 22830  98.8522 285.0800 0011689  52.1195 308.1043 14.31419730302896
COSMOS 2278             
1 23087U 94023A   18255.11238887 -.00000057  00000-0 -52195-5 0  9998
2 23087  71.0547 134.4233 0011059 252.7443 107.2470 14.13780164258370
SL-16 R/B               
1 23088U 94023B   18255.52959497 -.00000107  00000-0 -31055-4 0  9998
2 23088  70.9991  52.6496 0002195 176.3549 183.7589 14.14672527259514
SL-16 R/B               
1 23343U 94074B   18255.21871723  .00000016  00000-0  97408-5 0  9991
2 23343  98.0961 300.2042 0008121  67.5141 332.6058 14.76743261283547
SL-16 R/B               
1 23405U 94077B   18254.65541929  .00000252  00000-0  15439-3 0  9996
2 23405  70.9854 346.1860 0003516 318.8455  41.2402 14.15201568229139
ERS-2                   
1 23560U 95021A   18255.13796564  .00000946  00000-0  45351-4 0  9996
2 23560  98.5277 313.3265 0003221 187.5463 172.5722 15.21968276244105
ARIANE 40+ R/B          
1 23561U 95021B   18254.96359069  .00000010  00000-0  18535-4 0  9998
2 23561  98.7902 271.6304 0007024  12.5348  45.1018 14.37887515225954
SL-16 R/B               
1 23705U 95058B   18254.92928935  .00000221  00000-0  13842-3 0  9997
2 23705  71.0223 161.2441 0013669 321.8267  38.1886 14.15111370180790
SL-16 R/B               
1 24298U 96051B   18254.90625256 -.00000159  00000-0 -59474-4 0  9991
2 24298  70.8304 189.8672 0018574 234.9236 125.0143 14.12407581135349
ORBVIEW 2 (SEASTAR)     
1 24883U 97037A   18254.88011506  .00000043  00000-0  31417-4 0  9997
2 24883  98.5681   3.2013 0002144 181.4566 178.6612 14.33468356116625
SL-16 R/B               
1 25400U 98043G   18255.40738736 -.00000022  00000-0  85815-5 0  9991
2 25400  98.5381 195.5581 0010927  57.5520 302.6715 14.25431726 49499
SL-16 R/B               
1 25407U 98045B   18254.91271931 -.00000266  00000-0 -11095-3 0  9992
2 25407  71.0120 172.1330 0009898 246.0868 113.9218 14.15778948 39850
ISS (ZARYA)             
1 25544U 98067A   18255.62480928  .00001257  00000-0  26505-4 0  9997
2 25544  51.6417 302.9617 0005064 149.3899   0.4595 15.53838190132116
SL-8 R/B                
1 25723U 99022C   18254.88755585  .00008983  00000-0  11113-3 0  9990
2 25723  48.4139 266.3402 0007628  55.5735 304.5932 15.60784304 76597
CZ-4B R/B               
1 25732U 99025C   18255.02484723 -.00000024  00000-0  10581-4 0  9991
2 25732  98.9930 267.3596 0036438 244.9709 168.1697 14.17653745   658
OKEAN-O                 
1 25860U 99039A   18254.94725204  .00000024  00000-0  11045-4 0  9995
2 25860  98.2208 252.0800 0001784 100.8288 259.3122 14.76563711 30408
SL-16 R/B               
1 25861U 99039B   18255.06054806  .00000003  00000-0  78935-5 0  9992
2 25861  98.1604 236.0422 0016979  69.6810 332.1695 14.78493864 32540
TERRA                   
1 25994U 99068A   18255.18854521 -.00000147  00000-0 -22651-4 0  9990
2 25994  98.2027 328.7705 0001388 103.0015 257.1421 14.57117777996497
ENVISAT                 
1 27386U 02009A   18255.07694734  .00000002  00000-0  14181-4 0  9999
2 27386  98.1784 285.0138 0001278  88.3433 324.5539 14.37929420866012
IDEFIX & ARIANE 42P R/B 
1 27422U 02021B   18255.05213163 -.00000043  00000-0 -68126-6 0  9992
2 27422  98.2645 236.1181 0012063 343.5945  16.4845 14.29265527851229
AQUA                    
1 27424U 02022A   18254.87068000  .00000077  00000-0  27203-4 0  9996
2 27424  98.1997 194.7398 0002163 137.2721 257.8350 14.57131632870053
CZ-4B R/B               
1 27432U 02024C   18254.95159931 -.00000043  00000-0  13299-5 0  9995
2 27432  99.0419 237.5236 0050129 194.2924 189.1988 14.14069473842566
MIDORI II (ADEOS-II)    
1 27597U 02056A   18254.92328587  .00000003  00000-0  18393-4 0  9998
2 27597  98.4296 211.9117 0002221  82.1508 277.9925 14.27363066819864
H-2A R/B                
1 27601U 02056E   18254.77589221  .00000034  00000-0  27242-4 0  9998
2 27601  98.3195 310.5015 0072791  36.1764  71.2480 14.31854261822437
